KUIPER-00176            
1 65788U 25217AC  25338.58334491 -.00942601  00000+0 -60719-1 0  9996
2 65788  51.8931 106.2321 0003266 309.5139 139.5620 15.10793504  5157
KUIPER-00101            
1 65947U 25228A   25338.58334491 -.00686892  00000+0 -50260-1 0  9992
2 65947  51.8943  62.8592 0003757 350.9604  24.1866 15.05726675  5673
KUIPER-00113            
1 65948U 25228B   25338.58334491  .00051042  00000+0  27471-2 0  9993
2 65948  51.8825  60.9493 0005728 330.0501 181.7665 15.14331444  4769
KUIPER-00117            
1 65949U 25228C   25338.58334491 -.00078000  00000+0 -44787-2 0  9998
2 65949  51.8960  61.7183 0010440 349.1314 143.5481 15.12270068  5759
KUIPER-00121            
1 65950U 25228D   25338.58334491 -.00217052  00000+0 -85609-2 0  9990
2 65950  51.8838  60.2782 0006292 354.2455 185.3855 15.25961175  5622
KUIPER-00122            
1 65951U 25228E   25338.58334491 -.01072775  00000+0 -98406-1 0  9991
2 65951  51.8941  64.4335 0006641  16.1569 310.5129 14.97523746  5549
KUIPER-00123            
1 65952U 25228F   25338.58334491 -.01210331  00000+0 -11371+0 0  9998
2 65952  51.8948  64.4345 0007084 348.4482 215.3436 14.96471889  5491
KUIPER-00124            
1 65953U 25228G   25338.58334491 -.00793141  00000+0 -32494-1 0  9994
2 65953  51.8844  60.3388 0005738 351.7580 157.9167 15.26304555  5748
